{
    "type": "FeatureCollection",
    "features": [
      {
        "type": "Feature",
        "properties": {},
        "geometry": {
          "coordinates": [
            [
              [
                106.82339196962505,
                29.713528242076464
              ],
              [
                106.82809013271367,
                29.71346734022434
              ],
              [
                106.83510231642629,
                29.71164026750921
              ],
              [
                106.84029133237357,
                29.709630449119757
              ],
              [
                106.84821509997016,
                29.7216887559602
              ],
              [
                106.84947729303758,
                29.728508974956256
              ],
              [
                106.85515716184585,
                29.740991210680434
              ],
              [
                106.83433097621759,
                29.742513328282215
              ],
              [
                106.83384012335767,
                29.737886019135132
              ],
              [
                106.8281602545506,
                29.732832266562497
              ],
              [
                106.82703830515584,
                29.72625591816866
              ],
              [
                106.82360233513708,
                29.717852179080225
              ],
              [
                106.82339196962505,
                29.713528242076464
              ]
            ]
          ],
          "type": "Polygon"
        }
      }
    ]
  }