{
  "type": "FeatureCollection",
  "features": [
    {
      "type": "Feature",
      "properties": {},
      "geometry": {
        "coordinates": [
          [
            [
              2.144865336048724,
              41.39252954675442
            ],
            [
              2.1425324497571694,
              41.38072505720626
            ],
            [
              2.149358763227042,
              41.375593897098014
            ],
            [
              2.174981940471696,
              41.39481498813811
            ],
            [
              2.1627670804311094,
              41.40413177794983
            ],
            [
              2.144865336048724,
              41.39252954675442
            ]
          ]
        ],
        "type": "Polygon"
      }
    }
  ]
}