{
  "type": "FeatureCollection",
  "features": [
    {
      "type": "Feature",
      "properties": {
        "name": "Zürich-West",
        "source": "Drawn manually using geojson.io based on open street map and planning references",
        "city": "Zurich",
        "country": "Switzerland",
        "area_type": "Innovation district",
        "project_focus": [
          "Smart Mobility",
          "Energy Efficiency",
          "Digital Citizen Engagement"
        ],
        "author": "Liang Ge",
        "date_created": "2025-04-08"
      },
      "geometry": {
        "coordinates": [
          [
            [
              8.510162156909377,
              47.39376530616735
            ],
            [
              8.506403268381028,
              47.39391179982532
            ],
            [
              8.504156157826069,
              47.39384640010867
            ],
            [
              8.502579364707938,
              47.39378137199231
            ],
            [
              8.501467296108384,
              47.3935851799564
            ],
            [
              8.497407518803183,
              47.393360195199065
            ],
            [
              8.49291770917895,
              47.39329424239326
            ],
            [
              8.492644162535608,
              47.392360940844924
            ],
            [
              8.491881357143367,
              47.39005295927643
            ],
            [
              8.490547520431301,
              47.386965416474034
            ],
            [
              8.495661973149073,
              47.38488393744437
            ],
            [
              8.498251648378812,
              47.38384319976086
            ],
            [
              8.50071152812343,
              47.38262669678422
            ],
            [
              8.507791762558755,
              47.37934446374684
            ],
            [
              8.51278252023945,
              47.37721841056455
            ],
            [
              8.516542368024135,
              47.37555913455687
            ],
            [
              8.51863893320667,
              47.37519391216351
            ],
            [
              8.518347141758035,
              47.37607060214829
            ],
            [
              8.51853124492274,
              47.37762179396276
            ],
            [
              8.519965681888445,
              47.37904907921924
            ],
            [
              8.522159246170677,
              47.38061086702317
            ],
            [
              8.523627042849938,
              47.381034826893554
            ],
            [
              8.525124716471023,
              47.38109509683393
            ],
            [
              8.526776613107035,
              47.381056802987615
            ],
            [
              8.528471158967886,
              47.3808163581054
            ],
            [
              8.529658872632108,
              47.382366213267346
            ],
            [
              8.531471036115743,
              47.38462549554187
            ],
            [
              8.53036545580088,
              47.3855628783636
            ],
            [
              8.528579900300208,
              47.3869561637771
            ],
            [
              8.526514364509788,
              47.38818358492645
            ],
            [
              8.522418290464756,
              47.390614736653674
            ],
            [
              8.51825564113508,
              47.391872381682525
            ],
            [
              8.51532011954589,
              47.39276023524722
            ],
            [
              8.5122035707411,
              47.393586814774466
            ],
            [
              8.510162156909377,
              47.39376530616735
            ]
          ]
        ],
        "type": "Polygon"
      }
    },
    {
      "type": "Feature",
      "properties": {},
      "geometry": {
        "coordinates": [
          [
            [
              8.525693786302611,
              47.38727797011529
            ],
            [
              8.52591457203664,
              47.38727797011529
            ],
            [
              8.52591457203664,
              47.38736205290871
            ],
            [
              8.525693786302611,
              47.38736205290871
            ],
            [
              8.525693786302611,
              47.38727797011529
            ]
          ]
        ],
        "type": "Polygon"
      }
    }
  ]
}