{"type":"FeatureCollection","features":[{"type":"Feature","properties":{},"geometry":{"type":"Polygon","coordinates":[[[115.90675360210697,39.31872927164571],[115.87277604598995,39.31743296685843],[115.83912944737426,39.31355667992186],[115.80614143044575,39.30713816587861],[115.77413299068893,39.298239927141005],[115.74341527475241,39.286948584560484],[115.71428647168652,39.27337400695537],[115.68702884991605,39.257648208933574],[115.6619059720423,39.23992402938606],[115.63916011684925,39.22037360537309],[115.61900993479078,39.199186658247825],[115.6016483598357,39.17656861073293],[115.58724079692814,39.15273855526778],[115.57592360056427,39.12792709526286],[115.56780285617364,39.102374081926385],[115.56295347220185,39.07632627006786],[115.56141858708729,39.050034916735314],[115.56320929177234,39.0237533467217],[115.56830466503648,38.99773450889045],[115.57665211582506,38.97222854694222],[115.5881680239032,38.94748040768994],[115.60273866760566,38.923727509151874],[115.62022142518883,38.90119748983204],[115.64044623431764,38.88010605945763],[115.66321729253262,38.860654970204344],[115.68831498011734,38.84303012608422],[115.71549798561192,38.8273998467148],[115.74450561326236,38.813913300150574],[115.77506025093666,38.802699117853976],[115.8068699764465,38.79386420322589],[115.83963127976448,38.787492743416685],[115.87303187829333,38.7836454324089],[115.90675360210697,38.78235891160827],[115.94047532592062,38.7836454324089],[115.97387592444944,38.787492743416685],[116.00663722776743,38.79386420322589],[116.03844695327727,38.802699117853976],[116.06900159095156,38.813913300150574],[116.098009218602,38.8273998467148],[116.12519222409658,38.84303012608422],[116.15028991168133,38.860654970204344],[116.17306096989628,38.88010605945763],[116.1932857790251,38.90119748983204],[116.21076853660826,38.923727509151874],[116.22533918031075,38.94748040768994],[116.2368550883889,38.97222854694222],[116.24520253917746,38.99773450889045],[116.2502979124416,39.0237533467217],[116.25208861712665,39.050034916735314],[116.25055373201208,39.07632627006786],[116.2457043480403,39.102374081926385],[116.23758360364965,39.12792709526286],[116.22626640728579,39.15273855526778],[116.21185884437824,39.17656861073293],[116.19449726942315,39.199186658247825],[116.1743470873647,39.22037360537309],[116.15160123217164,39.23992402938606],[116.12647835429789,39.257648208933574],[116.09922073252743,39.27337400695537],[116.07009192946151,39.286948584560484],[116.03937421352502,39.298239927141005],[116.0073657737682,39.30713816587861],[115.97437775683967,39.31355667992186],[115.94073115822397,39.31743296685843],[115.90675360210697,39.31872927164571]]]}}]}