{
    "type": "FeatureCollection",
    "features": [
      {
        "type": "Feature",
        "properties": {
          "name": "Xi'an High-tech Zone"
        },
        "geometry": {
          "type": "Polygon",
          "coordinates": [
            [
              [108.8562, 34.2230],
              [108.8720, 34.2205],
              [108.8800, 34.2140],
              [108.8880, 34.2075],
              [108.8915, 34.2000],
              [108.8850, 34.1950],
              [108.8725, 34.1925],
              [108.8620, 34.1950],
              [108.8500, 34.2020],
              [108.8475, 34.2110],
              [108.8505, 34.2180],
              [108.8562, 34.2230]
            ]
          ]
        }
      }
    ]
  }
  