{"type":"FeatureCollection","generator":"overpass-turbo","copyright":"The data included in this document is from www.openstreetmap.org. The data is made available under ODbL.","timestamp":"2025-03-20T14:20:14Z","features":[{"type":"Feature","properties":{"@id":"relation/6427488","admin_level":"8","border_type":"freguesia","boundary":"administrative","name":"Beato","official_name":"Freguesia de Beato","population":"12185","population:date":"2021","ref:ine":"110607","source":"DGT - CAOP 2022","type":"boundary","website":"https://jf-beato.pt/","wikidata":"Q686717"},"geometry":{"type":"Polygon","coordinates":[[[-9.1201041,38.7411708],[-9.1207151,38.7407519],[-9.1214547,38.7406013],[-9.1229157,38.7407156],[-9.1232511,38.740717],[-9.1234648,38.7406543],[-9.1236712,38.7404948],[-9.1237915,38.7403199],[-9.123777,38.7395878],[-9.1236544,38.7393744],[-9.1232328,38.7389417],[-9.1232249,38.7389336],[-9.1237369,38.7386541],[-9.1249322,38.738226],[-9.1258632,38.7379704],[-9.126476,38.7378648],[-9.1264037,38.7377386],[-9.1260189,38.7370661],[-9.125726,38.7364066],[-9.1252963,38.7359115],[-9.1223669,38.7334971],[-9.1220518,38.7333229],[-9.12033,38.7327843],[-9.1188598,38.7328825],[-9.1171757,38.7327481],[-9.1172654,38.7324951],[-9.1172478,38.7323016],[-9.1168868,38.7312237],[-9.1151422,38.7289585],[-9.1143099,38.7265164],[-9.1128946,38.7256694],[-9.1126985,38.7257254],[-9.1123601,38.725537],[-9.1100769,38.724151],[-9.1099105,38.7243167],[-9.1094207,38.7240002],[-9.1089224,38.7240294],[-9.1086954,38.7242229],[-9.1069867,38.725655],[-9.1053476,38.7270318],[-9.1051222,38.7274581],[-9.1051786,38.7274766],[-9.1049733,38.7297478],[-9.1049932,38.7297955],[-9.1050241,38.7298337],[-9.1050849,38.7298616],[-9.1047923,38.7302396],[-9.1040501,38.7313203],[-9.1035552,38.7321026],[-9.1029901,38.7330914],[-9.1029233,38.7332082],[-9.1026591,38.7336705],[-9.1035125,38.7340684],[-9.1035258,38.7342983],[-9.1039584,38.734445],[-9.1036026,38.7357633],[-9.1041871,38.7358682],[-9.10402,38.7362998],[-9.105506,38.7366631],[-9.1062307,38.7374877],[-9.1077574,38.7342212],[-9.1085701,38.7346827],[-9.1087534,38.7347867],[-9.1094049,38.7342574],[-9.1116528,38.7351461],[-9.112923,38.7355152],[-9.1133684,38.7355491],[-9.11348,38.7356419],[-9.1135505,38.7359196],[-9.1139416,38.7365109],[-9.1142399,38.7366282],[-9.1146798,38.7366632],[-9.1151243,38.7367883],[-9.1152438,38.7367819],[-9.1153459,38.7366819],[-9.115861,38.7370919],[-9.1159133,38.737447],[-9.1164492,38.7376295],[-9.1174898,38.7381063],[-9.117655,38.738757],[-9.1177839,38.7390181],[-9.1193163,38.7404649],[-9.1201041,38.7411708]]]},"id":0},{"type":"Feature","properties":{"Name":"Unicorn Factory Lisboa","Description":"It is a space for open innovation in the heart of the Beato neighbourhood, where work, leisure and cultural areas intertwine to unveil new urban dynamics, a daily living space shared by the Hub residents – entrepreneurs, freelancers, startups, scaleups and large companies – and the entire surrounding community."},"geometry":{"coordinates":[-9.111340000002542,38.72658863000558],"type":"Point"},"id":1}]}