 {"type":"FeatureCollection","features":[{"type":"Feature","properties":{},"geometry":{"coordinates":[[-71.04721257807412,42.35478578250641],[-71.05040348995874,42.35179885699853],[-71.05231803634229,42.34908691963301],[-71.05290303720611,42.34818291489475],[-71.04067120847527,42.340714550114825],[-71.03795893444347,42.34334823305852],[-71.02189800729265,42.343584079592006],[-71.02285528099856,42.34688584210235],[-71.04460666683777,42.35494298647953],[-71.04731894178572,42.35478578245821]],"type":"LineString"}}]}
