{"type":"FeatureCollection","features":[{"type":"Feature","properties":{},"geometry":{"coordinates":[114.07160550354621,22.54283894041248],"type":"Point"}},{"type":"Feature","properties":{},"geometry":{"type":"Polygon","coordinates":[[[113.90202693896784,22.610733756558968],[113.89648001068376,22.610482102871746],[113.89098656269087,22.609729568119132],[113.88559955791001,22.60848340775561],[113.88037092959402,22.606755636193267],[113.87535107912275,22.604562910586953],[113.87058838880677,22.601926369731345],[113.86612875446174,22.598871429647996],[113.86201514231149,22.595427537863333],[113.85828717452942,22.59162788878081],[113.85498074743519,22.58750910292835],[113.85212768603161,22.583110873211336],[113.84975543819927,22.578475581619454],[113.847886811467,22.573647890118185],[113.84653975484986,22.568674309701283],[113.84572718779792,22.563602751786405],[113.84545687783356,22.558482066299952],[113.84573136797557,22.55336157091883],[113.84654795456355,22.548290576014317],[113.84789871560682,22.54331790987669],[113.84977058929643,22.538491448788434],[113.8521455018386,22.533857656459322],[113.85500054330117,22.52946113723908],[113.85830818971087,22.525344207384038],[113.862036569207,22.521546488474698],[113.86614976964778,22.518104526863517],[113.87060818468125,22.515051442778454],[113.87536889494082,22.512416612420907],[113.88038608070316,22.510225386078876],[113.8856114620609,22.50849884493107],[113.89099476241303,22.507253598848106],[113.896484190866,22.50650162710672],[113.90202693896784,22.506250163525127],[113.90756968706965,22.50650162710672],[113.91305911552263,22.507253598848106],[113.91844241587476,22.50849884493107],[113.9236677972325,22.510225386078876],[113.92868498299484,22.512416612420907],[113.93344569325441,22.515051442778454],[113.93790410828788,22.518104526863517],[113.94201730872865,22.521546488474698],[113.94574568822476,22.525344207384038],[113.94905333463448,22.52946113723908],[113.95190837609705,22.533857656459322],[113.95428328863923,22.538491448788434],[113.95615516232884,22.54331790987669],[113.95750592337211,22.548290576014317],[113.95832250996008,22.55336157091883],[113.9585970001021,22.558482066299952],[113.95832669013774,22.563602751786405],[113.9575141230858,22.568674309701283],[113.95616706646865,22.573647890118185],[113.95429843973639,22.578475581619454],[113.95192619190405,22.583110873211336],[113.94907313050047,22.58750910292835],[113.94576670340624,22.59162788878081],[113.94203873562417,22.595427537863333],[113.93792512347392,22.598871429647996],[113.93346548912889,22.601926369731345],[113.9287027988129,22.604562910586953],[113.92368294834164,22.606755636193267],[113.91845432002565,22.60848340775561],[113.91306731524479,22.609729568119132],[113.9075738672519,22.610482102871746],[113.90202693896784,22.610733756558968]]]},"id":1}]}