{"type":"FeatureCollection","features":[{"type":"Feature","properties":{},"geometry":{"coordinates":[[[103.90131685090023,1.4139406048988405],[103.90126997300928,1.41337824140966],[103.90405920758127,1.4128158777843254],[103.90588744536865,1.4120660594062002],[103.90976188741587,1.4099609682042882],[103.91134204356746,1.4090692976143657],[103.91284497683421,1.4107348948925846],[103.91518920440615,1.4119869104992233],[103.91475625443547,1.4127300685810695],[103.91414197750248,1.416154908562774],[103.91161127436004,1.4161751480030347],[103.90813914964752,1.4164888593202392],[103.90744155806192,1.4142030497491618],[103.90684089330352,1.4143631782230415],[103.90618416650312,1.414859576420227],[103.90456637609037,1.413722664262849],[103.90242801854146,1.4143872037616774],[103.901675185378,1.4148996147969086],[103.90131685090023,1.4139406048988405]]],"type":"Polygon"}}]}