{
  "type": "FeatureCollection",
  "features": [
    {
      "type": "Feature",
      "properties": {},
      "geometry": {
        "coordinates": [
          [
            [116.14681899681091, 40.22953876396622],
            [116.0836506790742, 39.688346306917424],
            [115.95344680424802, 39.411501415396714],
            [116.47422055615414, 39.041636974426694],
            [117.08181926698819, 38.84831723818601],
            [117.94587197914808, 39.20997688741855],
            [118.07590319283082, 39.83692583968934],
            [116.84857996965764, 40.48782162281228],
            [116.14681899681091, 40.22953876396622]
          ]
        ],
        "type": "Polygon"
      }
    }
  ]
}
