{"type":"FeatureCollection","features":[{"type":"Feature","properties":{"stroke":"#555555","stroke-width":2,"stroke-opacity":1,"fill":"#555555","fill-opacity":0.4},"geometry":{"coordinates":[[[4.9846684900527976,52.36571817709199],[4.98204048599797,52.364654004365434],[4.97745412661655,52.36476829821038],[4.97445716582024,52.36208214245153],[4.975206014234516,52.360881716841675],[4.976235680803626,52.361167535421146],[4.977171927373604,52.36013856696172],[4.978482258571319,52.3608245496184],[4.980448095273232,52.358366433439926],[4.983349740735434,52.35962409312745],[4.9857834980803375,52.35836643361927],[4.986625989150639,52.355622331026495],[4.991399861184476,52.352477824374375],[4.997390648495326,52.34921874220103],[4.999449917766128,52.345959203138506],[5.003755902906761,52.344300156697756],[5.005909047539461,52.34372792642563],[5.0141462288433445,52.34653114427877],[5.017141553710275,52.34910436546602],[5.02734492050854,52.35110550845806],[5.038204048558754,52.35436442011297],[5.038953644533052,52.363740107076836],[5.02837642822999,52.363340126949595],[5.025287527221025,52.36779897762463],[5.005534388197958,52.36522599708812],[5.004785526582793,52.36299673055004],[5.009372223117822,52.36219646699939],[5.013304156200888,52.356708478555475],[5.008716980755395,52.35482192787967],[4.992803951960298,52.36276808530039],[4.9925231338054346,52.36408277932824],[4.9846684900527976,52.36571817709199]]],"type":"Polygon"},"id":0}]}