{"type":"FeatureCollection","features":[{"type":"Feature","properties":{},"geometry":{"coordinates":[[108.79058451682664,34.25356446966916],[108.88424023013994,34.25410719705822],[108.88440763228596,34.2485791769832],[108.88616012271353,34.24914820541544],[108.92364868642466,34.23231919459961],[108.91308208877888,34.216821376123164],[108.90779794486184,34.219377108035715],[108.90510672074538,34.21574907664508],[108.90191542183851,34.212699210691966],[108.89672997403619,34.20660105412732],[108.89074247498041,34.199852543502814],[108.8857537101191,34.191607996208475],[108.87650500357574,34.175555404834455],[108.87434126485118,34.173247643335046],[108.86995760303188,34.172964539449396],[108.84165937291522,34.173434988620485],[108.84174694628126,34.191818086464096],[108.84181322109515,34.20012269146143],[108.84134930708149,34.203986930009094],[108.8403844242934,34.20898634538548],[108.83883626495566,34.21923029207868],[108.83788989314968,34.226485691604594],[108.83160331882931,34.22560131227543],[108.80008125022454,34.22554827776651],[108.79995552315563,34.23084827818842],[108.79851193735925,34.23754164877927],[108.79521864703878,34.2458637167763],[108.79262908647502,34.25032980805855],[108.79059221803641,34.253576007860346]],"type":"LineString"}}]}